CCSDS_OMM_VERS = 2.0
CREATION_DATE  = 
ORIGINATOR     = 

OBJECT_NAME    = STARLINK-35297
OBJECT_ID      = 2025-232F
CENTER_NAME    = EARTH
REF_FRAME      = TEME
TIME_SYSTEM    = UTC
MEAN_ELEMENT_THEORY = SGP/SGP4

EPOCH          = 2025-11-13T22:00:03.000096
MEAN_MOTION    = 15.39697581
ECCENTRICITY   = .00015589
INCLINATION    = 53.1594
RA_OF_ASC_NODE = 283.0231
ARG_OF_PERICENTER = 96.1929
MEAN_ANOMALY   = 169.7462

EPHEMERIS_TYPE = 0
CLASSIFICATION_TYPE = U
NORAD_CAT_ID   = 66010
ELEMENT_SET_NO = 999
REV_AT_EPOCH   = 491
BSTAR          = -.42194893E-2
MEAN_MOTION_DOT = -.165983E-2
MEAN_MOTION_DDOT = 0

CCSDS_OMM_VERS = 2.0
CREATION_DATE  = 
ORIGINATOR     = 

OBJECT_NAME    = STARLINK-35256
OBJECT_ID      = 2025-232G
CENTER_NAME    = EARTH
REF_FRAME      = TEME
TIME_SYSTEM    = UTC
MEAN_ELEMENT_THEORY = SGP/SGP4

EPOCH          = 2025-11-13T22:00:03.000096
MEAN_MOTION    = 15.39624960
ECCENTRICITY   = .00015955
INCLINATION    = 53.1594
RA_OF_ASC_NODE = 283.2260
ARG_OF_PERICENTER = 86.9426
MEAN_ANOMALY   = 76.0148

EPHEMERIS_TYPE = 0
CLASSIFICATION_TYPE = U
NORAD_CAT_ID   = 66011
ELEMENT_SET_NO = 999
REV_AT_EPOCH   = 491
BSTAR          = -.11746822E-2
MEAN_MOTION_DOT = -.47105E-3
MEAN_MOTION_DDOT = 0

CCSDS_OMM_VERS = 2.0
CREATION_DATE  = 
ORIGINATOR     = 

OBJECT_NAME    = STARLINK-35293
OBJECT_ID      = 2025-232H
CENTER_NAME    = EARTH
REF_FRAME      = TEME
TIME_SYSTEM    = UTC
MEAN_ELEMENT_THEORY = SGP/SGP4

EPOCH          = 2025-11-13T22:00:03.000096
MEAN_MOTION    = 15.39729712
ECCENTRICITY   = .00009794
INCLINATION    = 53.1588
RA_OF_ASC_NODE = 283.1758
ARG_OF_PERICENTER = 128.8757
MEAN_ANOMALY   = 59.7527

EPHEMERIS_TYPE = 0
CLASSIFICATION_TYPE = U
NORAD_CAT_ID   = 66012
ELEMENT_SET_NO = 999
REV_AT_EPOCH   = 491
BSTAR          = -.37924817E-2
MEAN_MOTION_DOT = -.149692E-2
MEAN_MOTION_DDOT = 0

CCSDS_OMM_VERS = 2.0
CREATION_DATE  = 
ORIGINATOR     = 

OBJECT_NAME    = STARLINK-35307
OBJECT_ID      = 2025-232J
CENTER_NAME    = EARTH
REF_FRAME      = TEME
TIME_SYSTEM    = UTC
MEAN_ELEMENT_THEORY = SGP/SGP4

EPOCH          = 2025-11-13T21:44:32.270784
MEAN_MOTION    = 15.39642461
ECCENTRICITY   = .00012002
INCLINATION    = 53.1607
RA_OF_ASC_NODE = 283.4847
ARG_OF_PERICENTER = 100.7174
MEAN_ANOMALY   = 259.3966

EPHEMERIS_TYPE = 0
CLASSIFICATION_TYPE = U
NORAD_CAT_ID   = 66013
ELEMENT_SET_NO = 999
REV_AT_EPOCH   = 568
BSTAR          = .24548482E-2
MEAN_MOTION_DOT = .99151E-3
MEAN_MOTION_DDOT = 0

CCSDS_OMM_VERS = 2.0
CREATION_DATE  = 
ORIGINATOR     = 

OBJECT_NAME    = STARLINK-35395
OBJECT_ID      = 2025-232K
CENTER_NAME    = EARTH
REF_FRAME      = TEME
TIME_SYSTEM    = UTC
MEAN_ELEMENT_THEORY = SGP/SGP4

EPOCH          = 2025-11-13T21:31:09.164640
MEAN_MOTION    = 15.39694484
ECCENTRICITY   = .00013004
INCLINATION    = 53.1595
RA_OF_ASC_NODE = 283.4250
ARG_OF_PERICENTER = 101.5790
MEAN_ANOMALY   = 258.5361

EPHEMERIS_TYPE = 0
CLASSIFICATION_TYPE = U
NORAD_CAT_ID   = 66014
ELEMENT_SET_NO = 999
REV_AT_EPOCH   = 568
BSTAR          = .27445411E-2
MEAN_MOTION_DOT = .111268E-2
MEAN_MOTION_DDOT = 0

CCSDS_OMM_VERS = 2.0
CREATION_DATE  = 
ORIGINATOR     = 

OBJECT_NAME    = STARLINK-34622
OBJECT_ID      = 2025-232L
CENTER_NAME    = EARTH
REF_FRAME      = TEME
TIME_SYSTEM    = UTC
MEAN_ELEMENT_THEORY = SGP/SGP4

EPOCH          = 2025-11-13T05:10:01.905312
MEAN_MOTION    = 15.49289949
ECCENTRICITY   = .0001379
INCLINATION    = 53.1588
RA_OF_ASC_NODE = 286.2799
ARG_OF_PERICENTER = 23.3312
MEAN_ANOMALY   = 336.7759

EPHEMERIS_TYPE = 0
CLASSIFICATION_TYPE = U
NORAD_CAT_ID   = 66015
ELEMENT_SET_NO = 999
REV_AT_EPOCH   = 557
BSTAR          = .16547E-2
MEAN_MOTION_DOT = .92617E-3
MEAN_MOTION_DDOT = 0

CCSDS_OMM_VERS = 2.0
CREATION_DATE  = 
ORIGINATOR     = 

OBJECT_NAME    = STARLINK-35243
OBJECT_ID      = 2025-232M
CENTER_NAME    = EARTH
REF_FRAME      = TEME
TIME_SYSTEM    = UTC
MEAN_ELEMENT_THEORY = SGP/SGP4

EPOCH          = 2025-11-13T03:37:37.889472
MEAN_MOTION    = 15.49286960
ECCENTRICITY   = .00009767
INCLINATION    = 53.1588
RA_OF_ASC_NODE = 286.5905
ARG_OF_PERICENTER = 97.8417
MEAN_ANOMALY   = 262.2703

EPHEMERIS_TYPE = 0
CLASSIFICATION_TYPE = U
NORAD_CAT_ID   = 66016
ELEMENT_SET_NO = 999
REV_AT_EPOCH   = 557
BSTAR          = .13468705E-2
MEAN_MOTION_DOT = .75124E-3
MEAN_MOTION_DDOT = 0

CCSDS_OMM_VERS = 2.0
CREATION_DATE  = 
ORIGINATOR     = 

OBJECT_NAME    = STARLINK-35398
OBJECT_ID      = 2025-232N
CENTER_NAME    = EARTH
REF_FRAME      = TEME
TIME_SYSTEM    = UTC
MEAN_ELEMENT_THEORY = SGP/SGP4

EPOCH          = 2025-11-13T21:45:00.136512
MEAN_MOTION    = 15.39661428
ECCENTRICITY   = .00024875
INCLINATION    = 53.1603
RA_OF_ASC_NODE = 283.4855
ARG_OF_PERICENTER = 83.7058
MEAN_ANOMALY   = 276.4231

EPHEMERIS_TYPE = 0
CLASSIFICATION_TYPE = U
NORAD_CAT_ID   = 66017
ELEMENT_SET_NO = 999
REV_AT_EPOCH   = 568
BSTAR          = .23964131E-2
MEAN_MOTION_DOT = .96816E-3
MEAN_MOTION_DDOT = 0

CCSDS_OMM_VERS = 2.0
CREATION_DATE  = 
ORIGINATOR     = 

OBJECT_NAME    = STARLINK-35376
OBJECT_ID      = 2025-232P
CENTER_NAME    = EARTH
REF_FRAME      = TEME
TIME_SYSTEM    = UTC
MEAN_ELEMENT_THEORY = SGP/SGP4

EPOCH          = 2025-11-13T22:00:03.000096
MEAN_MOTION    = 15.39629554
ECCENTRICITY   = .00017482
INCLINATION    = 53.1584
RA_OF_ASC_NODE = 283.0728
ARG_OF_PERICENTER = 85.6803
MEAN_ANOMALY   = 154.4890

EPHEMERIS_TYPE = 0
CLASSIFICATION_TYPE = U
NORAD_CAT_ID   = 66018
ELEMENT_SET_NO = 999
REV_AT_EPOCH   = 491
BSTAR          = -.48531152E-3
MEAN_MOTION_DOT = -.19768E-3
MEAN_MOTION_DDOT = 0

CCSDS_OMM_VERS = 2.0
CREATION_DATE  = 
ORIGINATOR     = 

OBJECT_NAME    = STARLINK-35382
OBJECT_ID      = 2025-232Q
CENTER_NAME    = EARTH
REF_FRAME      = TEME
TIME_SYSTEM    = UTC
MEAN_ELEMENT_THEORY = SGP/SGP4

EPOCH          = 2025-11-13T22:00:03.000096
MEAN_MOTION    = 15.42012074
ECCENTRICITY   = .00013382
INCLINATION    = 53.1593
RA_OF_ASC_NODE = 282.9741
ARG_OF_PERICENTER = 109.3502
MEAN_ANOMALY   = 180.0448

EPHEMERIS_TYPE = 0
CLASSIFICATION_TYPE = U
NORAD_CAT_ID   = 66019
ELEMENT_SET_NO = 999
REV_AT_EPOCH   = 491
BSTAR          = -.50957697E-1
MEAN_MOTION_DOT = -.1970147E-1
MEAN_MOTION_DDOT = 0

CCSDS_OMM_VERS = 2.0
CREATION_DATE  = 
ORIGINATOR     = 

OBJECT_NAME    = STARLINK-35430
OBJECT_ID      = 2025-232R
CENTER_NAME    = EARTH
REF_FRAME      = TEME
TIME_SYSTEM    = UTC
MEAN_ELEMENT_THEORY = SGP/SGP4

EPOCH          = 2025-11-13T07:30:19.156608
MEAN_MOTION    = 15.39563974
ECCENTRICITY   = .0001626
INCLINATION    = 53.1597
RA_OF_ASC_NODE = 286.1784
ARG_OF_PERICENTER = 84.8659
MEAN_ANOMALY   = 275.2532

EPHEMERIS_TYPE = 0
CLASSIFICATION_TYPE = U
NORAD_CAT_ID   = 66020
ELEMENT_SET_NO = 999
REV_AT_EPOCH   = 557
BSTAR          = .16744E-2
MEAN_MOTION_DOT = .67041E-3
MEAN_MOTION_DDOT = 0

CCSDS_OMM_VERS = 2.0
CREATION_DATE  = 
ORIGINATOR     = 

OBJECT_NAME    = STARLINK-35432
OBJECT_ID      = 2025-232S
CENTER_NAME    = EARTH
REF_FRAME      = TEME
TIME_SYSTEM    = UTC
MEAN_ELEMENT_THEORY = SGP/SGP4

EPOCH          = 2025-11-13T04:30:04.124736
MEAN_MOTION    = 15.39619895
ECCENTRICITY   = .00020653
INCLINATION    = 53.1606
RA_OF_ASC_NODE = 286.8208
ARG_OF_PERICENTER = 92.8427
MEAN_ANOMALY   = 267.2814

EPHEMERIS_TYPE = 0
CLASSIFICATION_TYPE = U
NORAD_CAT_ID   = 66021
ELEMENT_SET_NO = 999
REV_AT_EPOCH   = 557
BSTAR          = .17067354E-2
MEAN_MOTION_DOT = .68485E-3
MEAN_MOTION_DDOT = 0

