STARLINK-35297          
1 66010U 25232F   25317.91670139 -.00165983  00000+0 -42195-2 0  9997
2 66010  53.1594 283.0231 0001558  96.1929 169.7462 15.39697581  4919
STARLINK-35256          
1 66011U 25232G   25317.91670139 -.00047105  00000+0 -11747-2 0  9992
2 66011  53.1594 283.2260 0001595  86.9426  76.0148 15.39624960  4916
STARLINK-35293          
1 66012U 25232H   25317.91670139 -.00149692  00000+0 -37925-2 0  9993
2 66012  53.1588 283.1758 0000979 128.8757  59.7527 15.39729712  4919
STARLINK-35307          
1 66013U 25232J   25317.90592906  .00099151  00000+0  24548-2 0  9997
2 66013  53.1607 283.4847 0001200 100.7174 259.3966 15.39642461  5689
STARLINK-35395          
1 66014U 25232K   25317.89663385  .00111268  00000+0  27445-2 0  9999
2 66014  53.1595 283.4250 0001300 101.5790 258.5361 15.39694484  5680
STARLINK-34622          
1 66015U 25232L   25317.21529983  .00092617  00000+0  16547-2 0  9998
2 66015  53.1588 286.2799 0001379  23.3312 336.7759 15.49289949  5574
STARLINK-35243          
1 66016U 25232M   25317.15113298  .00075124  00000+0  13469-2 0  9994
2 66016  53.1588 286.5905 0000976  97.8417 262.2703 15.49286960  5573
STARLINK-35398          
1 66017U 25232N   25317.90625158  .00096816  00000+0  23964-2 0  9993
2 66017  53.1603 283.4855 0002487  83.7058 276.4231 15.39661428  5686
STARLINK-35376          
1 66018U 25232P   25317.91670139 -.00019768  00000+0 -48531-3 0  9995
2 66018  53.1584 283.0728 0001748  85.6803 154.4890 15.39629554  4913
STARLINK-35382          
1 66019U 25232Q   25317.91670139 -.01970147  00000+0 -50958-1 0  9998
2 66019  53.1593 282.9741 0001338 109.3502 180.0448 15.42012074  4913
STARLINK-35430          
1 66020U 25232R   25317.31272172  .00067041  00000+0  16744-2 0  9992
2 66020  53.1597 286.1784 0001626  84.8659 275.2532 15.39563974  5572
STARLINK-35432          
1 66021U 25232S   25317.18754774  .00068485  00000+0  17067-2 0  9993
2 66021  53.1606 286.8208 0002065  92.8427 267.2814 15.39619895  5570
